{
    "links": {
        "self": "http://www.neowsapp.com/rest/v1/neo/3765991?api_key=iIulBulltgU6a56xZRHN4H3l9WmuAYTsLGpBGhQ2"
    },
    "id": "3765991",
    "neo_reference_id": "3765991",
    "name": "(2016 WO55)",
    "designation": "2016 WO55",
    "nasa_jpl_url": "http://ssd.jpl.nasa.gov/sbdb.cgi?sstr=3765991",
    "absolute_magnitude_h": 22.514,
    "estimated_diameter": {
        "kilometers": {
            "estimated_diameter_min": 0.0835131715,
            "estimated_diameter_max": 0.1867411284
        },
        "meters": {
            "estimated_diameter_min": 83.5131714658,
            "estimated_diameter_max": 186.741128414
        },
        "miles": {
            "estimated_diameter_min": 0.0518926629,
            "estimated_diameter_max": 0.1160355217
        },
        "feet": {
            "estimated_diameter_min": 273.9933534717,
            "estimated_diameter_max": 612.6677637459
        }
    },
    "is_potentially_hazardous_asteroid": false,
    "close_approach_data": [
        {
            "close_approach_date": "2016-10-16",
            "close_approach_date_full": "2016-Oct-16 20:23",
            "epoch_date_close_approach": 1476649380000,
            "relative_velocity": {
                "kilometers_per_second": "11.8035910107",
                "kilometers_per_hour": "42492.9276385358",
                "miles_per_hour": "26403.4527318447"
            },
            "miss_distance": {
                "astronomical": "0.0515283229",
                "lunar": "20.0445176081",
                "kilometers": "7708527.350512223",
                "miles": "4789856.7869977574"
            },
            "orbiting_body": "Earth"
        }
    ],
    "orbital_data": {
        "orbit_id": "2",
        "orbit_determination_date": "2017-04-06 08:21:43",
        "first_observation_date": "2016-11-23",
        "last_observation_date": "2016-11-30",
        "data_arc_in_days": 7,
        "observations_used": 8,
        "orbit_uncertainty": "9",
        "minimum_orbit_intersection": ".0365487",
        "jupiter_tisserand_invariant": "3.298",
        "epoch_osculation": "2457717.5",
        "eccentricity": ".6169785696336935",
        "semi_major_axis": "2.310157177089565",
        "inclination": "4.076216914983737",
        "ascending_node_longitude": "359.3497593820312",
        "orbital_period": "1282.509883456705",
        "perihelion_distance": ".8848397063398339",
        "perihelion_argument": "347.2141705526447",
        "aphelion_distance": "3.735474647839296",
        "perihelion_time": "2457650.979634957680",
        "mean_anomaly": "18.67223927404814",
        "mean_motion": ".2806995912029186",
        "equinox": "J2000",
        "orbit_class": {
            "orbit_class_type": "APO",
            "orbit_class_description": "Near-Earth asteroid orbits which cross the Earth’s orbit similar to that of 1862 Apollo",
            "orbit_class_range": "a (semi-major axis) > 1.0 AU; q (perihelion) < 1.017 AU"
        }
    },
    "is_sentry_object": false
}